{
  "norad_id": 65829,
  "name": "STARLINK-35244",
  "history": [
    {
      "epoch": "2026-03-28T22:11:54.447072Z",
      "apogee_km": 475.95229522532554,
      "perigee_km": 474.3297131250574,
      "latitude_deg": -6.609289877011424e-05,
      "longitude_deg": -157.8078062338979,
      "height_km": 476.35438025655253,
      "semi_major_axis_km": 6853.278004175191,
      "eccentricity": 0.00011838,
      "inclination_deg": 53.16,
      "raan_deg": 1.5075,
      "arg_perigee_deg": 112.8503,
      "mean_anomaly_deg": 247.2622,
      "mean_motion_rev_day": 15.30224806
    },
    {
      "epoch": "2026-03-29T01:20:00.929184Z",
      "apogee_km": 475.9172080589615,
      "perigee_km": 474.5109004226324,
      "latitude_deg": 5.3954731215663464e-05,
      "longitude_deg": 154.42901903032384,
      "height_km": 475.9114118102037,
      "semi_major_axis_km": 6853.351054240797,
      "eccentricity": 0.0001026,
      "inclination_deg": 53.1602,
      "raan_deg": 0.9,
      "arg_perigee_deg": 73.3796,
      "mean_anomaly_deg": 286.7318,
      "mean_motion_rev_day": 15.3020034
    },
    {
      "epoch": "2026-03-30T00:50:49.106976Z",
      "apogee_km": 475.9196752000271,
      "perigee_km": 474.5805233608271,
      "latitude_deg": -1.3063982050714452e-05,
      "longitude_deg": 156.20926850426875,
      "height_km": 475.89362594132086,
      "semi_major_axis_km": 6853.387099280427,
      "eccentricity": 9.77e-05,
      "inclination_deg": 53.1594,
      "raan_deg": 356.3467,
      "arg_perigee_deg": 67.6163,
      "mean_anomaly_deg": 292.4941,
      "mean_motion_rev_day": 15.30188268
    },
    {
      "epoch": "2026-03-30T00:50:49.107840Z",
      "apogee_km": 475.9194010645424,
      "perigee_km": 474.5807974963118,
      "latitude_deg": -9.653131444742613e-06,
      "longitude_deg": 156.20926743569566,
      "height_km": 475.893730332344,
      "semi_major_axis_km": 6853.387099280427,
      "eccentricity": 9.766e-05,
      "inclination_deg": 53.1594,
      "raan_deg": 356.3467,
      "arg_perigee_deg": 67.6163,
      "mean_anomaly_deg": 292.4941,
      "mean_motion_rev_day": 15.30188268
    },
    {
      "epoch": "2026-03-30T10:15:08.606016Z",
      "apogee_km": 475.9435714902238,
      "perigee_km": 474.5112183316878,
      "latitude_deg": 4.2584328284409576e-05,
      "longitude_deg": 12.92239769167166,
      "height_km": 475.996710887936,
      "semi_major_axis_km": 6853.3643949109555,
      "eccentricity": 0.0001045,
      "inclination_deg": 53.1599,
      "raan_deg": 354.5273,
      "arg_perigee_deg": 79.6173,
      "mean_anomaly_deg": 280.4946,
      "mean_motion_rev_day": 15.30195872
    },
    {
      "epoch": "2026-03-30T21:13:30.887328Z",
      "apogee_km": 475.96572007003033,
      "perigee_km": 474.34806857921467,
      "latitude_deg": -2.5905750199605627e-05,
      "longitude_deg": -154.24223078781947,
      "height_km": 476.26664248841286,
      "semi_major_axis_km": 6853.293894324623,
      "eccentricity": 0.00011802,
      "inclination_deg": 53.1601,
      "raan_deg": 352.4062,
      "arg_perigee_deg": 105.1568,
      "mean_anomaly_deg": 254.9563,
      "mean_motion_rev_day": 15.30219484
    },
    {
      "epoch": "2026-03-31T00:21:37.210464Z",
      "apogee_km": 475.9781376623041,
      "perigee_km": 474.37555875204,
      "latitude_deg": 1.919279491847407e-05,
      "longitude_deg": 157.99610300588725,
      "height_km": 476.269201788468,
      "semi_major_axis_km": 6853.313848207172,
      "eccentricity": 0.00011692,
      "inclination_deg": 53.1597,
      "raan_deg": 351.7996,
      "arg_perigee_deg": 104.0205,
      "mean_anomaly_deg": 256.0926,
      "mean_motion_rev_day": 15.30212801
    }
  ]
}